{
"type": "FeatureCollection",
"name": "fiu_parking",
"crs": { "type": "name", "properties": { "name": "urn:ogc:def:crs:OGC:1.3:CRS84" } },
"features": [
{ "type": "Feature", "properties": { "osm_id": "way/112768036", "name": "North of University Towers Parking Lot", "type": "surface", "capacity": null, "access": null, "fee": null, "elev_p10": 1.765739917755127, "elev_median": 1.8660812377929688, "cells_1m": 5148, "pond_frac": 0.8451825951825952, "pond_depth_p90": 0.26601263880729675, "pond_depth_max": 0.39428567886352539, "flood_criteria_m": 2.2981204264715656, "freeboard_p10_m": -0.53238050871643861, "fema_zone": "AH", "in_sfha": true, "access_edges": 2, "access_risk_min": 0.58502575144355673, "access_risk_max": 0.58502575144355673, "access_roads": "Southwest 14th Street", "access_method": "adjacent", "parking_score": 0.74031222787933293 }, "geometry": { "type": "Polygon", "coordinates": [ [ [ -80.3768054, 25.755201 ], [ -80.3768135, 25.7549473 ], [ -80.3758146, 25.7549329 ], [ -80.3758076, 25.7553024 ], [ -80.3764862, 25.7553024 ], [ -80.376615, 25.7552662 ], [ -80.3766794, 25.7552638 ], [ -80.3768054, 25.755201 ] ] ] } },
{ "type": "Feature", "properties": { "osm_id": "way/112675665", "name": "Arena Loading Area Parking Lot", "type": "surface", "capacity": null, "access": null, "fee": null, "elev_p10": 1.4536237716674805, "elev_median": 1.5863903760910034, "cells_1m": 9296, "pond_frac": 0.63672547332185891, "pond_depth_p90": 0.27485638856887817, "pond_depth_max": 0.53633499145507812, "flood_criteria_m": 1.8886852743281808, "freeboard_p10_m": -0.43506150266070032, "fema_zone": "AH", "in_sfha": true, "access_edges": 2, "access_risk_min": 0.60513499342365029, "access_risk_max": 0.60513499342365029, "access_roads": "East Campus Circle", "access_method": "nearest", "parking_score": 0.73590117080489059 }, "geometry": { "type": "Polygon", "coordinates": [ [ [ -80.3785767, 25.7579861 ], [ -80.3781498, 25.7575938 ], [ -80.3775547, 25.7576171 ], [ -80.3775029, 25.7584249 ], [ -80.3776237, 25.7585026 ], [ -80.3778436, 25.7584172 ], [ -80.3785767, 25.7579861 ] ] ] } },
{ "type": "Feature", "properties": { "osm_id": "way/1305134878", "name": "Unnamed surface lot (way/1305134878)", "type": "surface", "capacity": null, "access": null, "fee": null, "elev_p10": 1.5506396293640137, "elev_median": 1.6385191679000854, "cells_1m": 724, "pond_frac": 0.58977900552486184, "pond_depth_p90": 0.20163460075855255, "pond_depth_max": 0.28921985626220703, "flood_criteria_m": 2.1160782670381257, "freeboard_p10_m": -0.56543863767411207, "fema_zone": "AH", "in_sfha": true, "access_edges": 2, "access_risk_min": 0.60711501409978041, "access_risk_max": 0.60711501409978041, "access_roads": "Southwest 11th Street", "access_method": "adjacent", "parking_score": 0.72449107885158104 }, "geometry": { "type": "Polygon", "coordinates": [ [ [ -80.3800667, 25.7575423 ], [ -80.3798455, 25.7576574 ], [ -80.3797904, 25.7575714 ], [ -80.3798185, 25.7575568 ], [ -80.3797839, 25.7575029 ], [ -80.3798818, 25.7574519 ], [ -80.3799114, 25.7574981 ], [ -80.3799814, 25.7574617 ], [ -80.3799502, 25.7574132 ], [ -80.3800871, 25.7573419 ], [ -80.3801463, 25.7574343 ], [ -80.3800347, 25.7574924 ], [ -80.3800667, 25.7575423 ] ] ] } },
{ "type": "Feature", "properties": { "osm_id": "way/435345239", "name": "W10 Parking Lot", "type": "surface", "capacity": null, "access": null, "fee": null, "elev_p10": 1.5323963165283203, "elev_median": 1.6225399971008301, "cells_1m": 2489, "pond_frac": 0.85496183206106868, "pond_depth_p90": 0.24779105186462402, "pond_depth_max": 0.41051709651947021, "flood_criteria_m": 1.8657607780303451, "freeboard_p10_m": -0.33336446150202481, "fema_zone": "AH", "in_sfha": true, "access_edges": 2, "access_risk_min": 0.59917368035257601, "access_risk_max": 0.59917368035257601, "access_roads": "", "access_method": "adjacent", "parking_score": 0.71002510236759686 }, "geometry": { "type": "Polygon", "coordinates": [ [ [ -80.3838257, 25.756596 ], [ -80.3834939, 25.7566067 ], [ -80.3834957, 25.7566512 ], [ -80.3834373, 25.7566531 ], [ -80.3834475, 25.7569091 ], [ -80.3836719, 25.7569018 ], [ -80.3836744, 25.756966 ], [ -80.3836151, 25.7569679 ], [ -80.3836229, 25.7571618 ], [ -80.3837062, 25.7571591 ], [ -80.3837072, 25.7571819 ], [ -80.3837836, 25.7571795 ], [ -80.383781, 25.7571135 ], [ -80.3838462, 25.7571114 ], [ -80.3838257, 25.756596 ] ] ] } },
{ "type": "Feature", "properties": { "osm_id": "way/435487486", "name": "W7 Parking Lot", "type": "surface", "capacity": null, "access": null, "fee": null, "elev_p10": 1.5988407135009766, "elev_median": 1.655637264251709, "cells_1m": 680, "pond_frac": 0.53823529411764703, "pond_depth_p90": 0.1650347113609314, "pond_depth_max": 0.18524062633514404, "flood_criteria_m": 1.8505968477085879, "freeboard_p10_m": -0.25175613420761134, "fema_zone": "AH", "in_sfha": true, "access_edges": 2, "access_risk_min": 0.61768741607666011, "access_risk_max": 0.61768741607666011, "access_roads": "Southwest 14th Street", "access_method": "adjacent", "parking_score": 0.67066988979121911 }, "geometry": { "type": "Polygon", "coordinates": [ [ [ -80.3827006, 25.7562276 ], [ -80.3827068, 25.7563934 ], [ -80.3826159, 25.7563961 ], [ -80.3826167, 25.7564183 ], [ -80.3825396, 25.7564183 ], [ -80.3825389, 25.7563975 ], [ -80.3824403, 25.7563968 ], [ -80.3824326, 25.7562324 ], [ -80.3827006, 25.7562276 ] ] ] } },
{ "type": "Feature", "properties": { "osm_id": "way/435479612", "name": "Greek Housing Parking Lot", "type": "surface", "capacity": null, "access": null, "fee": null, "elev_p10": 1.4414883852005005, "elev_median": 1.5752779245376587, "cells_1m": 6841, "pond_frac": 0.59041075866101445, "pond_depth_p90": 0.28432369232177734, "pond_depth_max": 0.4278947114944458, "flood_criteria_m": 1.8383286766573532, "freeboard_p10_m": -0.39684029145685273, "fema_zone": "AH", "in_sfha": true, "access_edges": 16, "access_risk_min": 0.34183302926428522, "access_risk_max": 0.64189174587343945, "access_roads": "Southwest 17th Street; Southwest 107th Avenue", "access_method": "adjacent", "parking_score": 0.66876643977236261 }, "geometry": { "type": "Polygon", "coordinates": [ [ [ -80.3695917, 25.7533869 ], [ -80.3695595, 25.7534582 ], [ -80.369459, 25.7535681 ], [ -80.3694911, 25.7535911 ], [ -80.3693624, 25.7536744 ], [ -80.3693101, 25.7535935 ], [ -80.3692873, 25.7535838 ], [ -80.3692886, 25.75362 ], [ -80.3691237, 25.7536188 ], [ -80.3691223, 25.7535754 ], [ -80.3689078, 25.7535754 ], [ -80.3689091, 25.7536213 ], [ -80.3687629, 25.7536213 ], [ -80.3687643, 25.7536961 ], [ -80.3687173, 25.7536973 ], [ -80.36872, 25.7538302 ], [ -80.3687079, 25.7538302 ], [ -80.3687093, 25.7538713 ], [ -80.3684759, 25.7538737 ], [ -80.3684746, 25.7538061 ], [ -80.3684022, 25.7538061 ], [ -80.368366, 25.7533507 ], [ -80.3684518, 25.7532746 ], [ -80.3695153, 25.7532818 ], [ -80.3695139, 25.7533289 ], [ -80.3695448, 25.7533603 ], [ -80.3695917, 25.7533869 ] ] ] } },
{ "type": "Feature", "properties": { "osm_id": "way/672915458", "name": "Lot 33", "type": "surface", "capacity": null, "access": null, "fee": "yes", "elev_p10": 1.5549670457839966, "elev_median": 1.6785657405853271, "cells_1m": 3341, "pond_frac": 0.30529781502544151, "pond_depth_p90": 0.18080592155456543, "pond_depth_max": 0.27895855903625488, "flood_criteria_m": 2.0682751784204738, "freeboard_p10_m": -0.51330813263647723, "fema_zone": "AH", "in_sfha": true, "access_edges": 2, "access_risk_min": 0.63555756086184656, "access_risk_max": 0.63555756086184656, "access_roads": "East Campus Circle", "access_method": "adjacent", "parking_score": 0.58002798037329384 }, "geometry": { "type": "Polygon", "coordinates": [ [ [ -80.3718436, 25.7569167 ], [ -80.3712401, 25.756917 ], [ -80.3712545, 25.7565809 ], [ -80.3712958, 25.7565706 ], [ -80.3713095, 25.7565244 ], [ -80.3717631, 25.7565298 ], [ -80.3718403, 25.7565975 ], [ -80.3718436, 25.7569167 ] ] ] } },
{ "type": "Feature", "properties": { "osm_id": "way/435349766", "name": "W5&W6 Parking Lot", "type": "surface", "capacity": null, "access": null, "fee": null, "elev_p10": 1.5968796014785767, "elev_median": 1.7007730007171631, "cells_1m": 3604, "pond_frac": 0.35682574916759158, "pond_depth_p90": 0.16699577867984772, "pond_depth_max": 0.22662794589996338, "flood_criteria_m": 1.865510460582863, "freeboard_p10_m": -0.2686308591042863, "fema_zone": "AH", "in_sfha": true, "access_edges": 6, "access_risk_min": 0.60711501409978041, "access_risk_max": 0.61768741607666011, "access_roads": "Southwest 14th Street; Southwest 11th Street; Southwest 115th Avenue", "access_method": "adjacent", "parking_score": 0.57083920396143639 }, "geometry": { "type": "Polygon", "coordinates": [ [ [ -80.3821665, 25.7561039 ], [ -80.3821707, 25.7563188 ], [ -80.3821732, 25.7564469 ], [ -80.3819197, 25.7564481 ], [ -80.3818741, 25.7564397 ], [ -80.3818218, 25.7564107 ], [ -80.3817923, 25.7563696 ], [ -80.3817829, 25.7563431 ], [ -80.3817678, 25.7558147 ], [ -80.3817561, 25.755407 ], [ -80.3818205, 25.7553913 ], [ -80.3818392, 25.7554045 ], [ -80.381862, 25.755407 ], [ -80.3818768, 25.7554831 ], [ -80.3819546, 25.7554831 ], [ -80.3819559, 25.7555857 ], [ -80.3819251, 25.7555869 ], [ -80.3819306, 25.7558003 ], [ -80.3819385, 25.7561087 ], [ -80.3821665, 25.7561039 ] ] ] } },
{ "type": "Feature", "properties": { "osm_id": "way/435501219", "name": "107th Avenue Entrance Apartments Parking Lot", "type": "surface", "capacity": null, "access": null, "fee": null, "elev_p10": 1.5248032808303833, "elev_median": 1.6707494258880615, "cells_1m": 7285, "pond_frac": 0.30061770761839396, "pond_depth_p90": 0.19805924594402313, "pond_depth_max": 0.28407824039459229, "flood_criteria_m": 1.9725619281632634, "freeboard_p10_m": -0.44775864733288007, "fema_zone": "AH", "in_sfha": true, "access_edges": 13, "access_risk_min": 0.57610430393689938, "access_risk_max": 0.63080298311916394, "access_roads": "Southwest 11th Street; East Campus Circle; Southwest 107th Avenue", "access_method": "adjacent", "parking_score": 0.56004998933909378 }, "geometry": { "type": "Polygon", "coordinates": [ [ [ -80.369104, 25.7583795 ], [ -80.3691217, 25.7583795 ], [ -80.3691314, 25.7583388 ], [ -80.3693694, 25.7583906 ], [ -80.3693168, 25.7585494 ], [ -80.36905, 25.7585022 ], [ -80.3687633, 25.7585125 ], [ -80.3687665, 25.7587215 ], [ -80.3687704, 25.7589707 ], [ -80.3691884, 25.7589598 ], [ -80.3701386, 25.7589352 ], [ -80.3703564, 25.7589295 ], [ -80.3703581, 25.7590474 ], [ -80.3702573, 25.7590554 ], [ -80.3702555, 25.759108 ], [ -80.3701415, 25.7591091 ], [ -80.3700839, 25.7591096 ], [ -80.3700839, 25.7590617 ], [ -80.3699832, 25.7590665 ], [ -80.3699845, 25.7591258 ], [ -80.3695264, 25.7591382 ], [ -80.3695247, 25.7590809 ], [ -80.3692539, 25.7590888 ], [ -80.3692539, 25.759151 ], [ -80.3687514, 25.759159 ], [ -80.3687478, 25.7590952 ], [ -80.3686523, 25.7590984 ], [ -80.3686469, 25.7589327 ], [ -80.3685832, 25.7589311 ], [ -80.3685709, 25.7584466 ], [ -80.3686151, 25.7583541 ], [ -80.3687107, 25.7583398 ], [ -80.3689938, 25.758335 ], [ -80.3689956, 25.7583701 ], [ -80.369104, 25.7583795 ] ] ] } },
{ "type": "Feature", "properties": { "osm_id": "way/112762971", "name": "Apartments Parking Lot", "type": "surface", "capacity": null, "access": null, "fee": null, "elev_p10": 1.5458663702011108, "elev_median": 1.6343891620635986, "cells_1m": 5188, "pond_frac": 0.31264456437933691, "pond_depth_p90": 0.1517537534236908, "pond_depth_max": 0.25626289844512939, "flood_criteria_m": 1.9355447976032669, "freeboard_p10_m": -0.38967842740215608, "fema_zone": "AH", "in_sfha": true, "access_edges": 6, "access_risk_min": 0.60324213828569584, "access_risk_max": 0.63555756086184656, "access_roads": "East Campus Circle; Southwest 11th Street", "access_method": "adjacent", "parking_score": 0.54898702132672361 }, "geometry": { "type": "Polygon", "coordinates": [ [ [ -80.3706417, 25.7579162 ], [ -80.370622, 25.7575507 ], [ -80.3703403, 25.7575585 ], [ -80.3703418, 25.7576065 ], [ -80.3702858, 25.7576095 ], [ -80.3702876, 25.7579379 ], [ -80.3701958, 25.7579852 ], [ -80.3699727, 25.7580964 ], [ -80.369996, 25.7581405 ], [ -80.3699052, 25.7581734 ], [ -80.3700643, 25.7584723 ], [ -80.3700776, 25.7585274 ], [ -80.3704835, 25.7583379 ], [ -80.3705156, 25.758322 ], [ -80.3703815, 25.7580732 ], [ -80.3706417, 25.7579162 ] ] ] } },
{ "type": "Feature", "properties": { "osm_id": "way/435354347", "name": "Public Safety Tower Parking Lot", "type": "surface", "capacity": null, "access": null, "fee": null, "elev_p10": 1.8540457487106323, "elev_median": 1.9525638818740845, "cells_1m": 1371, "pond_frac": 0.35959153902261121, "pond_depth_p90": 0.17272365093231201, "pond_depth_max": 0.28046345710754395, "flood_criteria_m": 1.9377480562299294, "freeboard_p10_m": -0.083702307519297081, "fema_zone": "AH", "in_sfha": true, "access_edges": 2, "access_risk_min": 0.58502575144355673, "access_risk_max": 0.58502575144355673, "access_roads": "Southwest 14th Street", "access_method": "adjacent", "parking_score": 0.54488694988554809 }, "geometry": { "type": "Polygon", "coordinates": [ [ [ -80.3765502, 25.7560127 ], [ -80.376539, 25.7556785 ], [ -80.37648, 25.7556767 ], [ -80.3764617, 25.7556419 ], [ -80.3763936, 25.7556611 ], [ -80.3763906, 25.7556749 ], [ -80.3763438, 25.7556776 ], [ -80.376355, 25.7559046 ], [ -80.3764079, 25.7559046 ], [ -80.376419, 25.7559138 ], [ -80.3764201, 25.7559229 ], [ -80.3764109, 25.7559294 ], [ -80.3763137, 25.7559324 ], [ -80.376294, 25.755933 ], [ -80.3762656, 25.7559156 ], [ -80.3762188, 25.7558781 ], [ -80.3761467, 25.7558781 ], [ -80.3761487, 25.7560127 ], [ -80.3761751, 25.7560127 ], [ -80.3761761, 25.7560246 ], [ -80.3761507, 25.7560621 ], [ -80.3761679, 25.7560673 ], [ -80.3761873, 25.7560731 ], [ -80.3762015, 25.7560584 ], [ -80.3762585, 25.7560264 ], [ -80.3762808, 25.7560182 ], [ -80.3763137, 25.7560175 ], [ -80.3764249, 25.7560153 ], [ -80.3765161, 25.7560134 ], [ -80.3765502, 25.7560127 ] ] ] } },
{ "type": "Feature", "properties": { "osm_id": "way/435358663", "name": "North of OE Parking Lot", "type": "surface", "capacity": "9", "access": null, "fee": null, "elev_p10": 1.4316549301147461, "elev_median": 1.5392521619796753, "cells_1m": 2094, "pond_frac": 0.17048710601719197, "pond_depth_p90": 0.13013629615306854, "pond_depth_max": 0.19440853595733643, "flood_criteria_m": 1.9332195860436641, "freeboard_p10_m": -0.50156465592891797, "fema_zone": "AH", "in_sfha": true, "access_edges": 2, "access_risk_min": 0.60495949615666889, "access_risk_max": 0.60495949615666889, "access_roads": "University Drive", "access_method": "nearest", "parking_score": 0.45617732083628476 }, "geometry": { "type": "Polygon", "coordinates": [ [ [ -80.3731348, 25.7587921 ], [ -80.372895, 25.758973 ], [ -80.3728605, 25.7590064 ], [ -80.3728048, 25.759067 ], [ -80.3727809, 25.7590327 ], [ -80.3727074, 25.759012 ], [ -80.3726836, 25.75902 ], [ -80.372657, 25.7590367 ], [ -80.3726491, 25.759075 ], [ -80.3725889, 25.7590766 ], [ -80.3725889, 25.7591347 ], [ -80.3724774, 25.7591339 ], [ -80.3724774, 25.7589514 ], [ -80.3727614, 25.7589514 ], [ -80.3727933, 25.7589323 ], [ -80.3728048, 25.7589004 ], [ -80.3727986, 25.7588718 ], [ -80.3727623, 25.7588359 ], [ -80.3726844, 25.7587976 ], [ -80.3726057, 25.7587905 ], [ -80.3726048, 25.7586518 ], [ -80.3726402, 25.7586494 ], [ -80.3726544, 25.7586399 ], [ -80.372711, 25.7586391 ], [ -80.3728242, 25.7587339 ], [ -80.3728906, 25.7586757 ], [ -80.3728561, 25.7586399 ], [ -80.3728552, 25.7585578 ], [ -80.3729764, 25.7585554 ], [ -80.3729782, 25.7586271 ], [ -80.3730384, 25.7586287 ], [ -80.3730366, 25.7586662 ], [ -80.3729764, 25.758667 ], [ -80.3728703, 25.7587626 ], [ -80.3728703, 25.758855 ], [ -80.3728924, 25.7588797 ], [ -80.3729278, 25.7588821 ], [ -80.3729623, 25.758871 ], [ -80.372964, 25.7588534 ], [ -80.3729163, 25.7588072 ], [ -80.373049, 25.7587028 ], [ -80.3731348, 25.7587921 ] ] ] } },
{ "type": "Feature", "properties": { "osm_id": "way/435480654", "name": "PAC Loading Area Parking Lot", "type": "surface", "capacity": null, "access": null, "fee": null, "elev_p10": 1.6248430013656616, "elev_median": 1.7146116495132446, "cells_1m": 1063, "pond_frac": 0.20319849482596425, "pond_depth_p90": 0.13625955581665039, "pond_depth_max": 0.2152714729309082, "flood_criteria_m": 1.909819688474826, "freeboard_p10_m": -0.28497668710916435, "fema_zone": "AH", "in_sfha": true, "access_edges": 2, "access_risk_min": 0.61577471097310377, "access_risk_max": 0.61577471097310377, "access_roads": "Southwest 17th Street", "access_method": "adjacent", "parking_score": 0.45535000472933301 }, "geometry": { "type": "Polygon", "coordinates": [ [ [ -80.3723912, 25.7530096 ], [ -80.3723585, 25.7530853 ], [ -80.3723889, 25.7531064 ], [ -80.3724671, 25.753099 ], [ -80.3724811, 25.7531663 ], [ -80.3724298, 25.7531779 ], [ -80.3724064, 25.7531968 ], [ -80.3723866, 25.7532378 ], [ -80.3723726, 25.7533009 ], [ -80.3723784, 25.7533219 ], [ -80.3722722, 25.7532862 ], [ -80.3722955, 25.7532652 ], [ -80.37232, 25.7532031 ], [ -80.372327, 25.7531327 ], [ -80.372285, 25.7531032 ], [ -80.3722021, 25.7530548 ], [ -80.3721519, 25.7530159 ], [ -80.3721367, 25.7530054 ], [ -80.3720772, 25.7529949 ], [ -80.3720352, 25.7529897 ], [ -80.3720305, 25.7529465 ], [ -80.3720562, 25.7529465 ], [ -80.372083, 25.7529276 ], [ -80.3721005, 25.7528961 ], [ -80.3720959, 25.7528435 ], [ -80.3720854, 25.752731 ], [ -80.3721589, 25.7527278 ], [ -80.3721717, 25.7528487 ], [ -80.3721531, 25.7528687 ], [ -80.3721531, 25.7529013 ], [ -80.3721624, 25.7529329 ], [ -80.3721799, 25.7529581 ], [ -80.3722079, 25.7529592 ], [ -80.3722383, 25.7529203 ], [ -80.3723912, 25.7530096 ] ] ] } },
{ "type": "Feature", "properties": { "osm_id": "way/112937760", "name": "East of PG2 Parking Lot", "type": "surface", "capacity": null, "access": null, "fee": null, "elev_p10": 1.5693637132644653, "elev_median": 1.8019818067550659, "cells_1m": 10922, "pond_frac": 0.23805163889397546, "pond_depth_p90": 0.19173884391784668, "pond_depth_max": 0.59901821613311768, "flood_criteria_m": 2.0307001358224719, "freeboard_p10_m": -0.46133642255800655, "fema_zone": "AH", "in_sfha": true, "access_edges": 16, "access_risk_min": 0.32374492236125613, "access_risk_max": 0.63804009225633396, "access_roads": "Southwest 17th Street; Southwest 16th Street", "access_method": "adjacent", "parking_score": 0.45244610505763638 }, "geometry": { "type": "Polygon", "coordinates": [ [ [ -80.3717672, 25.753347 ], [ -80.3716665, 25.7534632 ], [ -80.3714909, 25.753661 ], [ -80.3710568, 25.754147 ], [ -80.3710387, 25.7541629 ], [ -80.3710233, 25.7541726 ], [ -80.3710095, 25.7541781 ], [ -80.3709965, 25.7541796 ], [ -80.370422, 25.7541752 ], [ -80.3704048, 25.754173 ], [ -80.3703878, 25.7541678 ], [ -80.3703724, 25.7541611 ], [ -80.3703608, 25.7541498 ], [ -80.3703507, 25.7541345 ], [ -80.3703415, 25.7541058 ], [ -80.3703407, 25.754078 ], [ -80.3703432, 25.7540557 ], [ -80.3703526, 25.7540275 ], [ -80.3703709, 25.7539988 ], [ -80.370391, 25.7539661 ], [ -80.3705237, 25.7538295 ], [ -80.370626, 25.7536942 ], [ -80.3706945, 25.7536001 ], [ -80.3707343, 25.7535536 ], [ -80.3707806, 25.7535048 ], [ -80.3708598, 25.7534391 ], [ -80.3709267, 25.7533922 ], [ -80.3709994, 25.7533482 ], [ -80.3710612, 25.7533209 ], [ -80.3711123, 25.7533039 ], [ -80.3711792, 25.7532805 ], [ -80.3712435, 25.7532599 ], [ -80.3712939, 25.7532491 ], [ -80.3713403, 25.7532406 ], [ -80.371398, 25.753233 ], [ -80.371459, 25.7532291 ], [ -80.3715154, 25.7532283 ], [ -80.3715597, 25.7532295 ], [ -80.3716049, 25.7532338 ], [ -80.3716406, 25.7532387 ], [ -80.3716699, 25.7532471 ], [ -80.3716885, 25.7532574 ], [ -80.3717042, 25.7532715 ], [ -80.3717258, 25.7532969 ], [ -80.3717672, 25.753347 ] ] ] } },
{ "type": "Feature", "properties": { "osm_id": "way/112770180", "name": "East of PAC Parking Lot", "type": "surface", "capacity": null, "access": null, "fee": null, "elev_p10": 1.6025239229202271, "elev_median": 1.6941382884979248, "cells_1m": 22376, "pond_frac": 0.17804790847336432, "pond_depth_p90": 0.12401795387268066, "pond_depth_max": 0.25666892528533936, "flood_criteria_m": 1.8756443942403047, "freeboard_p10_m": -0.27312047132007766, "fema_zone": "AH", "in_sfha": true, "access_edges": 14, "access_risk_min": 0.61577471097310377, "access_risk_max": 0.64189174587343945, "access_roads": "Southwest 17th Street", "access_method": "adjacent", "parking_score": 0.43126712473304696 }, "geometry": { "type": "Polygon", "coordinates": [ [ [ -80.3720321, 25.7530856 ], [ -80.3719935, 25.7524107 ], [ -80.369137, 25.7525557 ], [ -80.3691531, 25.7528722 ], [ -80.3692452, 25.752963 ], [ -80.3692259, 25.7530082 ], [ -80.3693193, 25.7530332 ], [ -80.3693063, 25.7529691 ], [ -80.3693276, 25.7529545 ], [ -80.3693948, 25.7529604 ], [ -80.3693972, 25.7530111 ], [ -80.3707302, 25.7529446 ], [ -80.3707463, 25.7530558 ], [ -80.370993, 25.7530465 ], [ -80.370998, 25.7530982 ], [ -80.3711362, 25.7530897 ], [ -80.3711307, 25.7530405 ], [ -80.3717024, 25.7530112 ], [ -80.3717077, 25.753063 ], [ -80.3718948, 25.7530543 ], [ -80.3719002, 25.7531003 ], [ -80.3718573, 25.7531222 ], [ -80.3719866, 25.7531611 ], [ -80.3719815, 25.7530851 ], [ -80.3720321, 25.7530856 ] ] ] } },
{ "type": "Feature", "properties": { "osm_id": "way/435347648", "name": "W2 Parking Lot", "type": "surface", "capacity": "37", "access": null, "fee": null, "elev_p10": 1.6881214380264282, "elev_median": 1.7835228443145752, "cells_1m": 6316, "pond_frac": 0.17843571880937303, "pond_depth_p90": 0.13514351844787598, "pond_depth_max": 0.30068933963775635, "flood_criteria_m": 1.9278637711661075, "freeboard_p10_m": -0.2397423331396793, "fema_zone": "AH", "in_sfha": true, "access_edges": 8, "access_risk_min": 0.59634793658315399, "access_risk_max": 0.64473734372927805, "access_roads": "Southwest 17th Street; Southwest 115th Avenue", "access_method": "adjacent", "parking_score": 0.42668170577679054 }, "geometry": { "type": "Polygon", "coordinates": [ [ [ -80.3828121, 25.7533214 ], [ -80.3828, 25.7534155 ], [ -80.3821395, 25.7534329 ], [ -80.3821371, 25.7533997 ], [ -80.3821251, 25.7534001 ], [ -80.3820716, 25.7534005 ], [ -80.3820803, 25.7535799 ], [ -80.3816789, 25.7535867 ], [ -80.3816112, 25.7535879 ], [ -80.381568, 25.7535851 ], [ -80.381533, 25.7535653 ], [ -80.3814861, 25.7535311 ], [ -80.3814738, 25.7530548 ], [ -80.3821266, 25.7530502 ], [ -80.3821262, 25.7533309 ], [ -80.3824332, 25.7533323 ], [ -80.382433, 25.7532532 ], [ -80.3828088, 25.753239 ], [ -80.3828121, 25.7533214 ] ] ] } },
{ "type": "Feature", "properties": { "osm_id": "way/484968602", "name": "107th Avenue Entrance Apartments Parking Lot", "type": "surface", "capacity": null, "access": null, "fee": null, "elev_p10": 1.5831536054611206, "elev_median": 1.7917287349700928, "cells_1m": 6294, "pond_frac": 0.1278995869081665, "pond_depth_p90": 0.11446654796600342, "pond_depth_max": 0.22731614112854004, "flood_criteria_m": 1.9279727197324092, "freeboard_p10_m": -0.34481911427128864, "fema_zone": "AH", "in_sfha": true, "access_edges": 2, "access_risk_min": 0.57610430393689938, "access_risk_max": 0.61766238830707687, "access_roads": "Southwest 107th Avenue", "access_method": "adjacent", "parking_score": 0.39198495457584792 }, "geometry": { "type": "Polygon", "coordinates": [ [ [ -80.3688863, 25.757895 ], [ -80.3688218, 25.7578635 ], [ -80.3687401, 25.7577899 ], [ -80.3685042, 25.7577794 ], [ -80.368484, 25.7570449 ], [ -80.3690761, 25.7570298 ], [ -80.3690771, 25.7572007 ], [ -80.3690103, 25.7572038 ], [ -80.368689, 25.7572144 ], [ -80.3686943, 25.7575427 ], [ -80.3691807, 25.7575288 ], [ -80.3692471, 25.7575269 ], [ -80.3692792, 25.757526 ], [ -80.3692803, 25.7575793 ], [ -80.3693287, 25.7575778 ], [ -80.3693314, 25.7578782 ], [ -80.3690992, 25.757887 ], [ -80.3688863, 25.757895 ] ] ] } },
{ "type": "Feature", "properties": { "osm_id": "way/435358897", "name": "South of AHC1 Parking Lot", "type": "surface", "capacity": null, "access": null, "fee": null, "elev_p10": 1.9129536151885986, "elev_median": 2.0805175304412842, "cells_1m": 1041, "pond_frac": 0.14793467819404418, "pond_depth_p90": 0.11933743953704834, "pond_depth_max": 0.20365571975708008, "flood_criteria_m": 1.828803657607315, "freeboard_p10_m": 0.08414995758128363, "fema_zone": "AH", "in_sfha": true, "access_edges": 2, "access_risk_min": 0.63555756086184656, "access_risk_max": 0.63555756086184656, "access_roads": "East Campus Circle", "access_method": "adjacent", "parking_score": 0.36562531308860746 }, "geometry": { "type": "Polygon", "coordinates": [ [ [ -80.3715572, 25.7573843 ], [ -80.3715549, 25.7574852 ], [ -80.371228, 25.7574841 ], [ -80.371228, 25.7574589 ], [ -80.371207, 25.7574442 ], [ -80.3711848, 25.7574347 ], [ -80.3711539, 25.7574346 ], [ -80.3708999, 25.7574337 ], [ -80.3709011, 25.7573737 ], [ -80.3711439, 25.7573791 ], [ -80.3711556, 25.757379 ], [ -80.3711603, 25.7573674 ], [ -80.3711615, 25.7573275 ], [ -80.3714895, 25.7573275 ], [ -80.3714895, 25.7573843 ], [ -80.3715572, 25.7573843 ] ] ] } },
{ "type": "Feature", "properties": { "osm_id": "way/435351819", "name": "Riccardo Silva Stadium Parking Lot", "type": "surface", "capacity": "19", "access": null, "fee": null, "elev_p10": 1.4977338314056396, "elev_median": 1.6491285562515259, "cells_1m": 2045, "pond_frac": 0.064058679706601465, "pond_depth_p90": 0.07517697662115097, "pond_depth_max": 0.2102731466293335, "flood_criteria_m": 1.9043506924206928, "freeboard_p10_m": -0.40661686101505312, "fema_zone": "AH", "in_sfha": true, "access_edges": 2, "access_risk_min": 0.64473734372927805, "access_risk_max": 0.64473734372927805, "access_roads": "Southwest 17th Street", "access_method": "adjacent", "parking_score": 0.35697845051074134 }, "geometry": { "type": "Polygon", "coordinates": [ [ [ -80.3789781, 25.7520598 ], [ -80.3791135, 25.7520682 ], [ -80.3791161, 25.7521289 ], [ -80.3791509, 25.7529305 ], [ -80.3791976, 25.7530272 ], [ -80.3790435, 25.7530524 ], [ -80.3790061, 25.7529347 ], [ -80.3789956, 25.7526079 ], [ -80.3789781, 25.7520598 ] ] ] } },
{ "type": "Feature", "properties": { "osm_id": "way/435356392", "name": "PC Loading Area Parking Lot", "type": "surface", "capacity": "13", "access": null, "fee": null, "elev_p10": 1.517737865447998, "elev_median": 1.6727410554885864, "cells_1m": 1817, "pond_frac": 0.074848651623555307, "pond_depth_p90": 0.078186705708503723, "pond_depth_max": 0.18120276927947998, "flood_criteria_m": 1.8944881517692722, "freeboard_p10_m": -0.37675028632127416, "fema_zone": "AH", "in_sfha": true, "access_edges": 2, "access_risk_min": 0.61195267983424806, "access_risk_max": 0.61195267983424806, "access_roads": "Southwest 14th Street", "access_method": "adjacent", "parking_score": 0.35355694655462211 }, "geometry": { "type": "Polygon", "coordinates": [ [ [ -80.3740094, 25.7547614 ], [ -80.3740161, 25.7546925 ], [ -80.3738793, 25.7546877 ], [ -80.3738123, 25.7546949 ], [ -80.3737479, 25.7547276 ], [ -80.3736822, 25.7547819 ], [ -80.3736285, 25.754852 ], [ -80.3736044, 25.7549136 ], [ -80.3736017, 25.7552071 ], [ -80.3736849, 25.7552095 ], [ -80.3736849, 25.7552687 ], [ -80.3737385, 25.7552699 ], [ -80.3737399, 25.7552107 ], [ -80.3738378, 25.7552119 ], [ -80.3738471, 25.7548097 ], [ -80.3738606, 25.7547771 ], [ -80.3739129, 25.754759 ], [ -80.3739652, 25.7547578 ], [ -80.3740094, 25.7547614 ] ] ] } },
{ "type": "Feature", "properties": { "osm_id": "way/435350181", "name": "CASE Parking Lot", "type": "surface", "capacity": null, "access": null, "fee": null, "elev_p10": 1.7938156127929688, "elev_median": 1.9543800354003906, "cells_1m": 1649, "pond_frac": 0.067919951485748933, "pond_depth_p90": 0.070086143910884857, "pond_depth_max": 0.51446747779846191, "flood_criteria_m": 2.172720304099462, "freeboard_p10_m": -0.37890469130649329, "fema_zone": "AH", "in_sfha": true, "access_edges": 1, "access_risk_min": 0.60123035790007784, "access_risk_max": 0.60123035790007784, "access_roads": "University Drive", "access_method": "nearest", "parking_score": 0.34307330525359675 }, "geometry": { "type": "Polygon", "coordinates": [ [ [ -80.3747604, 25.7585547 ], [ -80.3747342, 25.7586643 ], [ -80.3746787, 25.758663 ], [ -80.3746693, 25.7586862 ], [ -80.3746618, 25.7587046 ], [ -80.3747034, 25.7587407 ], [ -80.3745863, 25.7588739 ], [ -80.3745139, 25.758853 ], [ -80.3744846, 25.758853 ], [ -80.3744661, 25.7588711 ], [ -80.3744538, 25.7588891 ], [ -80.3744461, 25.7589377 ], [ -80.3745124, 25.7589585 ], [ -80.3745087, 25.7590635 ], [ -80.3745077, 25.7592055 ], [ -80.3744384, 25.7592068 ], [ -80.374438, 25.7592449 ], [ -80.3744379, 25.759254 ], [ -80.3743753, 25.7592554 ], [ -80.3742566, 25.7592582 ], [ -80.3742613, 25.7592035 ], [ -80.3742703, 25.7591954 ], [ -80.3742705, 25.7591319 ], [ -80.3743783, 25.7591291 ], [ -80.3743799, 25.7590154 ], [ -80.3743167, 25.759014 ], [ -80.3743167, 25.7589349 ], [ -80.374383, 25.7589321 ], [ -80.3743845, 25.7588697 ], [ -80.3743953, 25.7588447 ], [ -80.3744584, 25.7587892 ], [ -80.374537, 25.7587226 ], [ -80.3745755, 25.7586935 ], [ -80.3746156, 25.758656 ], [ -80.3746202, 25.7586158 ], [ -80.3746063, 25.7585825 ], [ -80.3745778, 25.7585751 ], [ -80.3745681, 25.7585472 ], [ -80.3747604, 25.7585547 ] ] ] } },
{ "type": "Feature", "properties": { "osm_id": "way/112762956", "name": "GC/Bookstore Parking Lot", "type": "surface", "capacity": null, "access": null, "fee": null, "elev_p10": 1.6591155529022217, "elev_median": 1.7964093685150146, "cells_1m": 10445, "pond_frac": 0.12197223551938727, "pond_depth_p90": 0.11260280758142471, "pond_depth_max": 0.24040734767913818, "flood_criteria_m": 2.0894883895030949, "freeboard_p10_m": -0.43037283660087322, "fema_zone": "AH", "in_sfha": true, "access_edges": 6, "access_risk_min": 0.31589379590234634, "access_risk_max": 0.63555756086184656, "access_roads": "East Campus Circle; Southwest 16th Street", "access_method": "adjacent", "parking_score": 0.33344484841851063 }, "geometry": { "type": "Polygon", "coordinates": [ [ [ -80.3711268, 25.7549395 ], [ -80.3708092, 25.7547091 ], [ -80.3707873, 25.7547324 ], [ -80.3706343, 25.7546237 ], [ -80.3705376, 25.7547385 ], [ -80.370389, 25.7546321 ], [ -80.3703086, 25.7547125 ], [ -80.3703554, 25.7547384 ], [ -80.3700677, 25.7550683 ], [ -80.3700879, 25.7552369 ], [ -80.3701921, 25.7554185 ], [ -80.3703244, 25.7555276 ], [ -80.3706718, 25.7557564 ], [ -80.3708195, 25.7555815 ], [ -80.3707544, 25.7555473 ], [ -80.3707924, 25.7555013 ], [ -80.370742, 25.7554705 ], [ -80.3711413, 25.7550156 ], [ -80.3710916, 25.7549837 ], [ -80.3711268, 25.7549395 ] ] ] } },
{ "type": "Feature", "properties": { "osm_id": "way/112781060", "name": "South of PG3 Parking Lot", "type": "surface", "capacity": null, "access": null, "fee": null, "elev_p10": 1.8496986627578735, "elev_median": 1.9303491115570068, "cells_1m": 11557, "pond_frac": 0.066107121225231463, "pond_depth_p90": 0.087281562387943268, "pond_depth_max": 0.18530988693237305, "flood_criteria_m": 2.0681941754508508, "freeboard_p10_m": -0.21849551269297729, "fema_zone": "AH", "in_sfha": true, "access_edges": 6, "access_risk_min": 0.60711501409978041, "access_risk_max": 0.61768741607666011, "access_roads": "Southwest 14th Street; Southwest 11th Street; Southwest 115th Avenue", "access_method": "adjacent", "parking_score": 0.3287657650301814 }, "geometry": { "type": "Polygon", "coordinates": [ [ [ -80.3817175, 25.7570605 ], [ -80.3817152, 25.7566033 ], [ -80.3812793, 25.7566044 ], [ -80.3812767, 25.7566407 ], [ -80.3810809, 25.756863 ], [ -80.3810621, 25.7570756 ], [ -80.3808073, 25.7574138 ], [ -80.380395, 25.757575 ], [ -80.3800813, 25.7577425 ], [ -80.3801107, 25.7577866 ], [ -80.3801481, 25.7577659 ], [ -80.3801549, 25.7577654 ], [ -80.3801591, 25.7577691 ], [ -80.3801593, 25.7578091 ], [ -80.3811104, 25.7577979 ], [ -80.3811977, 25.7576308 ], [ -80.3812821, 25.7574693 ], [ -80.381392, 25.7572785 ], [ -80.3815691, 25.7571674 ], [ -80.3816918, 25.757079 ], [ -80.3817175, 25.7570605 ] ] ] } },
{ "type": "Feature", "properties": { "osm_id": "way/112782306", "name": "East of W2 Parking Lot", "type": "surface", "capacity": null, "access": null, "fee": null, "elev_p10": 1.6595969200134277, "elev_median": 1.7638719081878662, "cells_1m": 15653, "pond_frac": 0.058455248195234143, "pond_depth_p90": 0.077792003750801086, "pond_depth_max": 0.23024857044219971, "flood_criteria_m": 1.938836455713725, "freeboard_p10_m": -0.27923953570029725, "fema_zone": "AH", "in_sfha": true, "access_edges": 4, "access_risk_min": 0.6000290976630317, "access_risk_max": 0.64473734372927805, "access_roads": "Southwest 17th Street; Southwest 115th Avenue", "access_method": "adjacent", "parking_score": 0.32594135441278194 }, "geometry": { "type": "Polygon", "coordinates": [ [ [ -80.3791594, 25.752865 ], [ -80.3791547, 25.7525931 ], [ -80.3806191, 25.7525682 ], [ -80.3806198, 25.7525989 ], [ -80.3806208, 25.7526034 ], [ -80.3806248, 25.7526078 ], [ -80.3806308, 25.7526096 ], [ -80.3807272, 25.7526087 ], [ -80.3807344, 25.752607 ], [ -80.3807396, 25.752602 ], [ -80.3807413, 25.7525972 ], [ -80.3807413, 25.7525656 ], [ -80.3810139, 25.7525608 ], [ -80.3810156, 25.7525928 ], [ -80.3810183, 25.7525987 ], [ -80.3810235, 25.7526023 ], [ -80.3810302, 25.7526038 ], [ -80.3812005, 25.7526008 ], [ -80.3812076, 25.7528305 ], [ -80.3812086, 25.7528772 ], [ -80.3809698, 25.7528812 ], [ -80.3809766, 25.7532047 ], [ -80.3813717, 25.7531988 ], [ -80.3813926, 25.7531983 ], [ -80.3813943, 25.7532395 ], [ -80.3813995, 25.7532454 ], [ -80.3814255, 25.753246 ], [ -80.3814305, 25.753393 ], [ -80.3814405, 25.7534126 ], [ -80.3814442, 25.7535204 ], [ -80.3811734, 25.7535213 ], [ -80.3811562, 25.7534983 ], [ -80.3811345, 25.7534868 ], [ -80.3811061, 25.7534815 ], [ -80.3810608, 25.7534812 ], [ -80.3809245, 25.7534181 ], [ -80.3808888, 25.7533478 ], [ -80.3808772, 25.7533335 ], [ -80.3808599, 25.7533242 ], [ -80.3808411, 25.7533217 ], [ -80.3808172, 25.7533317 ], [ -80.3807953, 25.7533496 ], [ -80.3807234, 25.7533127 ], [ -80.3806642, 25.753284 ], [ -80.3806606, 25.7531707 ], [ -80.3806563, 25.7531657 ], [ -80.3806484, 25.7531645 ], [ -80.3806416, 25.7531662 ], [ -80.3806367, 25.7531717 ], [ -80.3806369, 25.7532145 ], [ -80.3804972, 25.7532128 ], [ -80.3804983, 25.753175 ], [ -80.380496, 25.7531684 ], [ -80.380489, 25.753165 ], [ -80.3804796, 25.7531645 ], [ -80.3803982, 25.7531653 ], [ -80.3802962, 25.7531147 ], [ -80.3802797, 25.7531001 ], [ -80.3802669, 25.7530854 ], [ -80.3802629, 25.7530748 ], [ -80.3802615, 25.7530139 ], [ -80.380258, 25.7530092 ], [ -80.3802507, 25.7530073 ], [ -80.3802428, 25.753009 ], [ -80.3802386, 25.7530137 ], [ -80.3802382, 25.7530537 ], [ -80.3801786, 25.7530536 ], [ -80.3801777, 25.7530185 ], [ -80.3801731, 25.7530141 ], [ -80.3801655, 25.7530119 ], [ -80.3800453, 25.7530089 ], [ -80.3799986, 25.7529925 ], [ -80.379986, 25.7529834 ], [ -80.3799754, 25.7529693 ], [ -80.3799695, 25.7529515 ], [ -80.379965, 25.7528546 ], [ -80.3799618, 25.7528499 ], [ -80.3799534, 25.7528495 ], [ -80.3799487, 25.7528546 ], [ -80.3799514, 25.7528979 ], [ -80.3797614, 25.7529006 ], [ -80.3797589, 25.7528586 ], [ -80.3797556, 25.7528532 ], [ -80.3797472, 25.7528519 ], [ -80.3797399, 25.752854 ], [ -80.3797369, 25.7528599 ], [ -80.3797366, 25.7529009 ], [ -80.3794632, 25.7529056 ], [ -80.379461, 25.7528623 ], [ -80.3794576, 25.7528585 ], [ -80.3794505, 25.7528567 ], [ -80.3794435, 25.7528581 ], [ -80.3794383, 25.7528623 ], [ -80.3794386, 25.7529059 ], [ -80.3792822, 25.7529067 ], [ -80.3792806, 25.7528617 ], [ -80.3791594, 25.752865 ] ] ] } },
{ "type": "Feature", "properties": { "osm_id": "way/435355439", "name": "GL Parking Lot", "type": "surface", "capacity": "17", "access": null, "fee": null, "elev_p10": 1.7104431390762329, "elev_median": 2.2042179107666016, "cells_1m": 1475, "pond_frac": 0.0, "pond_depth_p90": 0.0, "pond_depth_max": 0.016246914863586426, "flood_criteria_m": 2.3920750539254985, "freeboard_p10_m": -0.68163191484926555, "fema_zone": "AH", "in_sfha": true, "access_edges": 1, "access_risk_min": 0.62097187248277064, "access_risk_max": 0.62097187248277064, "access_roads": "Southwest 112th Avenue", "access_method": "nearest", "parking_score": 0.31279389010059477 }, "geometry": { "type": "Polygon", "coordinates": [ [ [ -80.374825, 25.7574044 ], [ -80.3748222, 25.7574133 ], [ -80.3748223, 25.7574585 ], [ -80.3748226, 25.7574775 ], [ -80.3747316, 25.7574783 ], [ -80.374732, 25.7574573 ], [ -80.3747328, 25.7574114 ], [ -80.3747329, 25.7574053 ], [ -80.374733, 25.7574011 ], [ -80.3747305, 25.7573977 ], [ -80.3747237, 25.7573951 ], [ -80.3746094, 25.7573957 ], [ -80.374584, 25.7573958 ], [ -80.3745635, 25.7573965 ], [ -80.3745458, 25.757403 ], [ -80.3745284, 25.7574145 ], [ -80.3745173, 25.7574265 ], [ -80.3745166, 25.7574858 ], [ -80.3743675, 25.7574842 ], [ -80.3743675, 25.7570898 ], [ -80.3744993, 25.7570922 ], [ -80.3745002, 25.7572651 ], [ -80.3745471, 25.7573033 ], [ -80.3745754, 25.757324 ], [ -80.374607, 25.7573249 ], [ -80.3746452, 25.7573259 ], [ -80.3746567, 25.7573217 ], [ -80.3746628, 25.7573138 ], [ -80.3746632, 25.7572576 ], [ -80.3746624, 25.7572483 ], [ -80.374832, 25.7572502 ], [ -80.3748316, 25.7572596 ], [ -80.3748297, 25.7573217 ], [ -80.374825, 25.7574044 ] ] ] } },
{ "type": "Feature", "properties": { "osm_id": "way/739891735", "name": "Unnamed street_side lot (way/739891735)", "type": "street_side", "capacity": "16", "access": null, "fee": null, "elev_p10": 1.6130423545837402, "elev_median": 1.6834175586700439, "cells_1m": 381, "pond_frac": 0.0052493438320209973, "pond_depth_p90": 0.069477438926696777, "pond_depth_max": 0.1081230640411377, "flood_criteria_m": 2.0622809586683624, "freeboard_p10_m": -0.44923860408462213, "fema_zone": "AH", "in_sfha": true, "access_edges": 4, "access_risk_min": 0.61577471097310377, "access_risk_max": 0.62673019008871933, "access_roads": "Southwest 17th Street", "access_method": "adjacent", "parking_score": 0.31197434120765233 }, "geometry": { "type": "Polygon", "coordinates": [ [ [ -80.3767995, 25.7526885 ], [ -80.3767896, 25.7522631 ], [ -80.3767292, 25.7522642 ], [ -80.376739, 25.7526896 ], [ -80.3767995, 25.7526885 ] ] ] } },
{ "type": "Feature", "properties": { "osm_id": "way/112675663", "name": "Parking Lot 9", "type": "surface", "capacity": null, "access": null, "fee": null, "elev_p10": 1.6846730709075928, "elev_median": 1.8493934869766235, "cells_1m": 22704, "pond_frac": 0.039420366455250176, "pond_depth_p90": 0.042559325695037842, "pond_depth_max": 0.2857975959777832, "flood_criteria_m": 2.0048015189748876, "freeboard_p10_m": -0.32012844806729479, "fema_zone": "AH", "in_sfha": true, "access_edges": 6, "access_risk_min": 0.60513499342365029, "access_risk_max": 0.62141114929575969, "access_roads": "East Campus Circle; Southwest 11th Street; East Campus Circle;University Drive", "access_method": "adjacent", "parking_score": 0.30525219489490879 }, "geometry": { "type": "Polygon", "coordinates": [ [ [ -80.3771255, 25.759143 ], [ -80.3771139, 25.7586962 ], [ -80.3771166, 25.758665 ], [ -80.377122, 25.7586441 ], [ -80.3771359, 25.7586254 ], [ -80.3771593, 25.7586098 ], [ -80.377189, 25.7586033 ], [ -80.377395, 25.7585969 ], [ -80.377589, 25.7585783 ], [ -80.3776758, 25.7585663 ], [ -80.3777598, 25.7585453 ], [ -80.3778434, 25.758515 ], [ -80.3779303, 25.7584771 ], [ -80.3780142, 25.7584316 ], [ -80.3781322, 25.7583636 ], [ -80.3785879, 25.758101 ], [ -80.3787787, 25.7579898 ], [ -80.3788181, 25.7580806 ], [ -80.3788496, 25.7581759 ], [ -80.3788749, 25.758253 ], [ -80.3788989, 25.7583355 ], [ -80.3789114, 25.7584152 ], [ -80.3789146, 25.7584929 ], [ -80.3789086, 25.758585 ], [ -80.3788975, 25.7586778 ], [ -80.3788667, 25.7587689 ], [ -80.3788272, 25.7588671 ], [ -80.3787811, 25.7589438 ], [ -80.3787252, 25.7590239 ], [ -80.3786351, 25.7591135 ], [ -80.3785558, 25.7591741 ], [ -80.3784685, 25.7592327 ], [ -80.3783757, 25.7592795 ], [ -80.3782879, 25.7593145 ], [ -80.378194, 25.7593435 ], [ -80.378102, 25.7593613 ], [ -80.3780404, 25.7593702 ], [ -80.3779716, 25.7593739 ], [ -80.3778596, 25.7593724 ], [ -80.3777569, 25.7593591 ], [ -80.3776734, 25.7593422 ], [ -80.3775856, 25.7593176 ], [ -80.3774954, 25.7592893 ], [ -80.3772673, 25.7592488 ], [ -80.3772157, 25.7592351 ], [ -80.3771799, 25.7592206 ], [ -80.3771499, 25.7591959 ], [ -80.3771327, 25.7591733 ], [ -80.3771255, 25.759143 ] ] ] } },
{ "type": "Feature", "properties": { "osm_id": "way/435500056", "name": "CSC Staff Parking Lot", "type": "surface", "capacity": null, "access": null, "fee": null, "elev_p10": 1.7847295999526978, "elev_median": 1.8692194223403931, "cells_1m": 1192, "pond_frac": 0.0, "pond_depth_p90": 0.0079401731491088867, "pond_depth_max": 0.056383132934570312, "flood_criteria_m": 2.3846077622269988, "freeboard_p10_m": -0.59987816227430102, "fema_zone": "AH", "in_sfha": true, "access_edges": 2, "access_risk_min": 0.62099957466125488, "access_risk_max": 0.62099957466125488, "access_roads": "Southwest 116th Avenue", "access_method": "adjacent", "parking_score": 0.30507638456153074 }, "geometry": { "type": "Polygon", "coordinates": [ [ [ -80.3830784, 25.7548879 ], [ -80.383083, 25.7550031 ], [ -80.3831596, 25.7549649 ], [ -80.3831631, 25.7551024 ], [ -80.3830941, 25.755069 ], [ -80.3831004, 25.7552813 ], [ -80.3829647, 25.7552838 ], [ -80.3828977, 25.7552198 ], [ -80.3828867, 25.7549408 ], [ -80.3829471, 25.7549405 ], [ -80.3829448, 25.75489 ], [ -80.3830784, 25.7548879 ] ] ] } },
{ "type": "Feature", "properties": { "osm_id": "way/660332595", "name": "Lot 32", "type": "surface", "capacity": null, "access": null, "fee": "yes", "elev_p10": 1.8756366968154907, "elev_median": 1.944684624671936, "cells_1m": 3099, "pond_frac": 0.030977734753146177, "pond_depth_p90": 0.073037981986999512, "pond_depth_max": 0.14265108108520508, "flood_criteria_m": 2.0754381276218608, "freeboard_p10_m": -0.19980143080637003, "fema_zone": "AH", "in_sfha": true, "access_edges": 2, "access_risk_min": 0.63555756086184656, "access_risk_max": 0.63555756086184656, "access_roads": "East Campus Circle", "access_method": "adjacent", "parking_score": 0.30309585477831313 }, "geometry": { "type": "Polygon", "coordinates": [ [ [ -80.3715353, 25.7573375 ], [ -80.3718424, 25.7573359 ], [ -80.3718421, 25.7572846 ], [ -80.3719047, 25.7572843 ], [ -80.3719032, 25.7570675 ], [ -80.3718444, 25.7570678 ], [ -80.3718441, 25.7570313 ], [ -80.3711253, 25.7570351 ], [ -80.3711325, 25.757249 ], [ -80.3711395, 25.7572621 ], [ -80.3711495, 25.7572717 ], [ -80.371173, 25.7572856 ], [ -80.3712035, 25.7572895 ], [ -80.371535, 25.7572858 ], [ -80.3715353, 25.7573375 ] ] ] } },
{ "type": "Feature", "properties": { "osm_id": "way/435337261", "name": "CSC Compound Parking Lot", "type": "surface", "capacity": "184", "access": null, "fee": null, "elev_p10": 1.7618893384933472, "elev_median": 1.8855620622634888, "cells_1m": 10598, "pond_frac": 0.098980939799962253, "pond_depth_p90": 0.099445223808288574, "pond_depth_max": 0.25781130790710449, "flood_criteria_m": 2.1056437474203071, "freeboard_p10_m": -0.34375440892695996, "fema_zone": "X", "in_sfha": false, "access_edges": 12, "access_risk_min": 0.31830070268960642, "access_risk_max": 0.64473734372927805, "access_roads": "Southwest 17th Street; Southwest 115th Avenue; Southwest 116th Avenue", "access_method": "adjacent", "parking_score": 0.30114051091261862 }, "geometry": { "type": "Polygon", "coordinates": [ [ [ -80.3831586, 25.7544947 ], [ -80.3831314, 25.7538523 ], [ -80.3817168, 25.7538897 ], [ -80.3817305, 25.7544547 ], [ -80.3817336, 25.7546088 ], [ -80.3819394, 25.7545798 ], [ -80.3819229, 25.7541856 ], [ -80.3822646, 25.7541771 ], [ -80.3823814, 25.7541758 ], [ -80.3823834, 25.7542266 ], [ -80.3825544, 25.7542247 ], [ -80.3825603, 25.7544104 ], [ -80.3826739, 25.7545069 ], [ -80.3831586, 25.7544947 ] ] ] } },
{ "type": "Feature", "properties": { "osm_id": "way/435343832", "name": "RH Parking Lot", "type": "surface", "capacity": null, "access": null, "fee": null, "elev_p10": 1.7562000751495361, "elev_median": 1.8282586336135864, "cells_1m": 2156, "pond_frac": 0.033395176252319109, "pond_depth_p90": 0.080481290817260742, "pond_depth_max": 0.12835001945495605, "flood_criteria_m": 1.8984200126603379, "freeboard_p10_m": -0.14221993751080175, "fema_zone": "AH", "in_sfha": true, "access_edges": 12, "access_risk_min": 0.56711085343066558, "access_risk_max": 0.60661782747433513, "access_roads": "East Campus Circle; Southwest 16th Street", "access_method": "adjacent", "parking_score": 0.28297617806263431 }, "geometry": { "type": "Polygon", "coordinates": [ [ [ -80.3699535, 25.754577 ], [ -80.3695331, 25.7545743 ], [ -80.3695327, 25.7546216 ], [ -80.369273, 25.7546198 ], [ -80.3692734, 25.7545758 ], [ -80.3688559, 25.7545731 ], [ -80.3688546, 25.7547265 ], [ -80.369272, 25.7547292 ], [ -80.3692724, 25.7546846 ], [ -80.3695339, 25.7546864 ], [ -80.3695336, 25.754729 ], [ -80.3699523, 25.7547318 ], [ -80.3699535, 25.754577 ] ] ] } },
{ "type": "Feature", "properties": { "osm_id": "way/112768035", "name": "Unnamed surface lot (way/112768035)", "type": "surface", "capacity": null, "access": null, "fee": null, "elev_p10": 1.548089861869812, "elev_median": 1.6955360174179077, "cells_1m": 571, "pond_frac": 0.0, "pond_depth_p90": 0.026236891746520996, "pond_depth_max": 0.080197691917419434, "flood_criteria_m": 1.9322326288085194, "freeboard_p10_m": -0.38414276693870741, "fema_zone": "AH", "in_sfha": true, "access_edges": 2, "access_risk_min": 0.61195267983424806, "access_risk_max": 0.61195267983424806, "access_roads": "Southwest 14th Street", "access_method": "adjacent", "parking_score": 0.28136862891566472 }, "geometry": { "type": "Polygon", "coordinates": [ [ [ -80.3742037, 25.7546985 ], [ -80.3742178, 25.754659 ], [ -80.3741071, 25.7545608 ], [ -80.3740703, 25.7545055 ], [ -80.3740669, 25.7544859 ], [ -80.3739429, 25.7544946 ], [ -80.3739285, 25.7546615 ], [ -80.3742037, 25.7546985 ] ] ] } },
{ "type": "Feature", "properties": { "osm_id": "relation/8353261", "name": "CU Parking Lot", "type": "surface", "capacity": "29", "access": null, "fee": null, "elev_p10": 1.814473032951355, "elev_median": 1.9886729717254639, "cells_1m": 2867, "pond_frac": 0.021974189047785142, "pond_depth_p90": 0.05187997967004776, "pond_depth_max": 0.16238653659820557, "flood_criteria_m": 1.9682083237346515, "freeboard_p10_m": -0.15373529078329651, "fema_zone": "AH", "in_sfha": true, "access_edges": 1, "access_risk_min": 0.62097187248277064, "access_risk_max": 0.62097187248277064, "access_roads": "Southwest 112th Avenue", "access_method": "nearest", "parking_score": 0.27854159775993426 }, "geometry": { "type": "MultiPolygon", "coordinates": [ [ [ [ -80.3751333, 25.757764 ], [ -80.3750915, 25.7577639 ], [ -80.375091, 25.7580766 ], [ -80.3750311, 25.7580766 ], [ -80.375031, 25.7581682 ], [ -80.3750908, 25.7581682 ], [ -80.3750907, 25.7582508 ], [ -80.3749043, 25.7582506 ], [ -80.3749044, 25.7581562 ], [ -80.3749358, 25.7581562 ], [ -80.374936, 25.7577697 ], [ -80.3749779, 25.7577697 ], [ -80.374978, 25.7576022 ], [ -80.3749789, 25.7575521 ], [ -80.3750796, 25.7575522 ], [ -80.3751336, 25.7575523 ], [ -80.3751333, 25.757764 ] ] ], [ [ [ -80.37554, 25.7577911 ], [ -80.3755356, 25.7578408 ], [ -80.3755571, 25.7578838 ], [ -80.3755587, 25.7582709 ], [ -80.37538, 25.7582723 ], [ -80.3753846, 25.7577589 ], [ -80.3755551, 25.7577603 ], [ -80.37554, 25.7577911 ] ] ] ] } },
{ "type": "Feature", "properties": { "osm_id": "way/435481119", "name": "GC Loading Area Parking Lot", "type": "surface", "capacity": null, "access": null, "fee": null, "elev_p10": 1.6189191341400146, "elev_median": 1.7766404151916504, "cells_1m": 1481, "pond_frac": 0.0047265361242403783, "pond_depth_p90": 0.043880939483642578, "pond_depth_max": 0.11258089542388916, "flood_criteria_m": 1.8476631546311186, "freeboard_p10_m": -0.22874402049110398, "fema_zone": "AH", "in_sfha": true, "access_edges": 2, "access_risk_min": 0.63555756086184656, "access_risk_max": 0.63555756086184656, "access_roads": "East Campus Circle", "access_method": "nearest", "parking_score": 0.27691621069470079 }, "geometry": { "type": "Polygon", "coordinates": [ [ [ -80.3720126, 25.7557923 ], [ -80.3719436, 25.7558992 ], [ -80.3720361, 25.7559505 ], [ -80.3723848, 25.7559535 ], [ -80.3724397, 25.7560009 ], [ -80.3725075, 25.7559408 ], [ -80.3725833, 25.7560084 ], [ -80.3725946, 25.7559981 ], [ -80.3726142, 25.7560156 ], [ -80.3726729, 25.7560161 ], [ -80.3726741, 25.7559004 ], [ -80.3725159, 25.755899 ], [ -80.3725163, 25.7558652 ], [ -80.372431, 25.7558645 ], [ -80.3724322, 25.7557498 ], [ -80.3722168, 25.755748 ], [ -80.3722151, 25.7557882 ], [ -80.3722067, 25.755809 ], [ -80.3721796, 25.7558267 ], [ -80.3721372, 25.7558384 ], [ -80.3720769, 25.7558337 ], [ -80.3720126, 25.7557923 ] ] ] } },
{ "type": "Feature", "properties": { "osm_id": "way/435346429", "name": "W-9 Parking Lot", "type": "surface", "capacity": null, "access": null, "fee": null, "elev_p10": 1.6998515129089355, "elev_median": 1.7930753231048584, "cells_1m": 2112, "pond_frac": 0.011837121212121212, "pond_depth_p90": 0.064023867249488831, "pond_depth_max": 0.12811720371246338, "flood_criteria_m": 1.828803657607315, "freeboard_p10_m": -0.12895214469837946, "fema_zone": "AH", "in_sfha": true, "access_edges": 6, "access_risk_min": 0.59917368035257601, "access_risk_max": 0.62099957466125488, "access_roads": "Southwest 116th Avenue; Southwest 14th Street", "access_method": "adjacent", "parking_score": 0.26754923779620832 }, "geometry": { "type": "Polygon", "coordinates": [ [ [ -80.3825769, 25.7565046 ], [ -80.3825797, 25.7565614 ], [ -80.3825869, 25.7566814 ], [ -80.3827607, 25.7566749 ], [ -80.3827613, 25.7567006 ], [ -80.383338, 25.7566924 ], [ -80.383337, 25.7566644 ], [ -80.383399, 25.7566622 ], [ -80.3833984, 25.7566429 ], [ -80.3834507, 25.7566423 ], [ -80.3834473, 25.7565656 ], [ -80.383397, 25.7565662 ], [ -80.3833957, 25.7564961 ], [ -80.3833005, 25.7564961 ], [ -80.3833005, 25.7565215 ], [ -80.3826748, 25.7565312 ], [ -80.3826735, 25.7565022 ], [ -80.3825769, 25.7565046 ] ] ] } },
{ "type": "Feature", "properties": { "osm_id": "way/147575549", "name": "Parking Garage 5", "type": "garage", "capacity": null, "access": null, "fee": null, "elev_p10": 1.9182292222976685, "elev_median": 2.0102148056030273, "cells_1m": 14190, "pond_frac": 0.013460183227625088, "pond_depth_p90": 0.047760952264070511, "pond_depth_max": 0.16648900508880615, "flood_criteria_m": 1.9848614208947168, "freeboard_p10_m": -0.066632198597048387, "fema_zone": "AH", "in_sfha": true, "access_edges": 6, "access_risk_min": 0.59357228220244973, "access_risk_max": 0.6089680759995072, "access_roads": "University Drive; Southwest 109th Avenue", "access_method": "adjacent", "parking_score": 0.252470539528518 }, "geometry": { "type": "Polygon", "coordinates": [ [ [ -80.3722021, 25.7605838 ], [ -80.3722023, 25.7605052 ], [ -80.3722031, 25.7601809 ], [ -80.3722036, 25.7600024 ], [ -80.3722043, 25.7597234 ], [ -80.3710897, 25.7597211 ], [ -80.3710882, 25.7603161 ], [ -80.3710877, 25.760513 ], [ -80.3710875, 25.7605816 ], [ -80.3712838, 25.760582 ], [ -80.3722021, 25.7605838 ] ] ] } },
{ "type": "Feature", "properties": { "osm_id": "way/112937759", "name": "Unnamed surface lot (way/112937759)", "type": "surface", "capacity": null, "access": "private", "fee": null, "elev_p10": 1.877957820892334, "elev_median": 1.942330002784729, "cells_1m": 464, "pond_frac": 0.0043103448275862068, "pond_depth_p90": 0.038280308246612549, "pond_depth_max": 0.10552072525024414, "flood_criteria_m": 1.9715266267690736, "freeboard_p10_m": -0.093568805876739658, "fema_zone": "AH", "in_sfha": true, "access_edges": 1, "access_risk_min": 0.60661782747433513, "access_risk_max": 0.60661782747433513, "access_roads": "East Campus Circle", "access_method": "nearest", "parking_score": 0.24912632899677112 }, "geometry": { "type": "Polygon", "coordinates": [ [ [ -80.3697364, 25.7556381 ], [ -80.3697368, 25.7555635 ], [ -80.369737, 25.7554789 ], [ -80.36954, 25.7554781 ], [ -80.369539, 25.7556372 ], [ -80.3697364, 25.7556381 ] ] ] } },
{ "type": "Feature", "properties": { "osm_id": "way/112781054", "name": "Parking Garage 6", "type": "garage", "capacity": null, "access": null, "fee": null, "elev_p10": 2.0863709449768066, "elev_median": 2.1927893161773682, "cells_1m": 13953, "pond_frac": 0.0, "pond_depth_p90": 0.0015058040153235197, "pond_depth_max": 0.090685725212097168, "flood_criteria_m": 2.2021845904043369, "freeboard_p10_m": -0.11581364542753025, "fema_zone": "AH", "in_sfha": true, "access_edges": 4, "access_risk_min": 0.59178282302102914, "access_risk_max": 0.60495949615666889, "access_roads": "University Drive", "access_method": "adjacent", "parking_score": 0.23065651341839075 }, "geometry": { "type": "Polygon", "coordinates": [ [ [ -80.3739972, 25.760609 ], [ -80.3751102, 25.7606084 ], [ -80.3751101, 25.7605197 ], [ -80.37511, 25.7603661 ], [ -80.37511, 25.760319 ], [ -80.37511, 25.7602862 ], [ -80.3751096, 25.759761 ], [ -80.3745981, 25.7597613 ], [ -80.3742565, 25.7597614 ], [ -80.3740885, 25.7597615 ], [ -80.3740389, 25.7597616 ], [ -80.3739966, 25.7597616 ], [ -80.3739969, 25.7602109 ], [ -80.3739971, 25.7605158 ], [ -80.3739972, 25.7605933 ], [ -80.3739972, 25.760609 ] ] ] } },
{ "type": "Feature", "properties": { "osm_id": "way/705211136", "name": "Unnamed surface lot (way/705211136)", "type": "surface", "capacity": null, "access": null, "fee": null, "elev_p10": 2.0453629493713379, "elev_median": 2.0919849872589111, "cells_1m": 682, "pond_frac": 0.0, "pond_depth_p90": 0.02416226826608181, "pond_depth_max": 0.065122127532958984, "flood_criteria_m": 1.9735077598054365, "freeboard_p10_m": 0.071855189565901423, "fema_zone": "AH", "in_sfha": true, "access_edges": 2, "access_risk_min": 0.58502575144355673, "access_risk_max": 0.58502575144355673, "access_roads": "Southwest 14th Street", "access_method": "adjacent", "parking_score": 0.21300731989186839 }, "geometry": { "type": "Polygon", "coordinates": [ [ [ -80.3769995, 25.755636 ], [ -80.3769224, 25.7556997 ], [ -80.376854, 25.7557562 ], [ -80.3766789, 25.7555841 ], [ -80.3768245, 25.7554639 ], [ -80.3769995, 25.755636 ] ] ] } },
{ "type": "Feature", "properties": { "osm_id": "way/513972395", "name": "Parkview Parking Deck", "type": "garage", "capacity": null, "access": null, "fee": null, "elev_p10": 2.4102048873901367, "elev_median": 2.4487981796264648, "cells_1m": 4528, "pond_frac": 0.0, "pond_depth_p90": 0.0, "pond_depth_max": 0.043085336685180664, "flood_criteria_m": 2.2630684261307485, "freeboard_p10_m": 0.14713646125938817, "fema_zone": "AH", "in_sfha": true, "access_edges": 2, "access_risk_min": 0.58502575144355673, "access_risk_max": 0.58502575144355673, "access_roads": "Southwest 14th Street", "access_method": "adjacent", "parking_score": 0.19330490969297076 }, "geometry": { "type": "Polygon", "coordinates": [ [ [ -80.3774431, 25.7549242 ], [ -80.3774448, 25.7545053 ], [ -80.3774464, 25.7541139 ], [ -80.3770685, 25.7541127 ], [ -80.3770683, 25.7541667 ], [ -80.3770653, 25.7549229 ], [ -80.3771557, 25.7549232 ], [ -80.3774431, 25.7549242 ] ] ] } },
{ "type": "Feature", "properties": { "osm_id": "way/828249359", "name": "Unnamed surface lot (way/828249359)", "type": "surface", "capacity": null, "access": null, "fee": null, "elev_p10": 2.5803182125091553, "elev_median": 2.7444214820861816, "cells_1m": 2658, "pond_frac": 0.0, "pond_depth_p90": 0.0, "pond_depth_max": 0.019492149353027344, "flood_criteria_m": 2.245262985093841, "freeboard_p10_m": 0.33505522741531424, "fema_zone": "X", "in_sfha": false, "access_edges": 2, "access_risk_min": 0.62099957466125488, "access_risk_max": 0.62099957466125488, "access_roads": "Southwest 116th Avenue", "access_method": "adjacent", "parking_score": 0.1772425300099385 }, "geometry": { "type": "Polygon", "coordinates": [ [ [ -80.3832517, 25.7542168 ], [ -80.3832623, 25.7544486 ], [ -80.3832842, 25.755511 ], [ -80.383459, 25.7554984 ], [ -80.3834433, 25.7549411 ], [ -80.3833917, 25.7549372 ], [ -80.3833672, 25.7542303 ], [ -80.3832904, 25.7542333 ], [ -80.3832517, 25.7542168 ] ] ] } },
{ "type": "Feature", "properties": { "osm_id": "way/112762951", "name": "Red Parking Garage", "type": "garage", "capacity": null, "access": null, "fee": null, "elev_p10": 2.4328689575195312, "elev_median": 2.4953970909118652, "cells_1m": 10457, "pond_frac": 0.0003825188868700392, "pond_depth_p90": 0.0063774585723876953, "pond_depth_max": 0.10492515563964844, "flood_criteria_m": 2.0788418026421014, "freeboard_p10_m": 0.35402715487742986, "fema_zone": "AH", "in_sfha": true, "access_edges": 3, "access_risk_min": 0.60495949615666889, "access_risk_max": 0.6089680759995072, "access_roads": "University Drive; Southwest 109th Avenue", "access_method": "adjacent", "parking_score": 0.17352166670527402 }, "geometry": { "type": "Polygon", "coordinates": [ [ [ -80.373667, 25.7604912 ], [ -80.3736608, 25.7600981 ], [ -80.3736601, 25.7600541 ], [ -80.3736589, 25.7599787 ], [ -80.3736563, 25.75981 ], [ -80.3726197, 25.7598233 ], [ -80.3726211, 25.7599134 ], [ -80.3726266, 25.7602564 ], [ -80.3726295, 25.7604412 ], [ -80.3726305, 25.7605045 ], [ -80.373132, 25.7604981 ], [ -80.373667, 25.7604912 ] ] ] } },
{ "type": "Feature", "properties": { "osm_id": "way/112681023", "name": "Panther Parking Garage", "type": "garage", "capacity": null, "access": null, "fee": null, "elev_p10": 2.5055546760559082, "elev_median": 2.5568580627441406, "cells_1m": 10592, "pond_frac": 0.0, "pond_depth_p90": 0.0, "pond_depth_max": 0.060144901275634766, "flood_criteria_m": 2.1216979933959865, "freeboard_p10_m": 0.38385668265992168, "fema_zone": "AH", "in_sfha": true, "access_edges": 2, "access_risk_min": 0.62141114929575969, "access_risk_max": 0.62141114929575969, "access_roads": "East Campus Circle;University Drive", "access_method": "adjacent", "parking_score": 0.17083856296928371 }, "geometry": { "type": "Polygon", "coordinates": [ [ [ -80.3803347, 25.7588047 ], [ -80.3803364, 25.758404 ], [ -80.3803369, 25.758283 ], [ -80.3803376, 25.7581138 ], [ -80.3803077, 25.7581137 ], [ -80.3802381, 25.7581135 ], [ -80.3801516, 25.7581131 ], [ -80.3800775, 25.7581129 ], [ -80.3800324, 25.7581127 ], [ -80.3793927, 25.7581104 ], [ -80.3793642, 25.7581103 ], [ -80.3793016, 25.7581101 ], [ -80.3793012, 25.7582042 ], [ -80.3792998, 25.7585412 ], [ -80.3792993, 25.7586409 ], [ -80.379299, 25.7587218 ], [ -80.3792987, 25.7588011 ], [ -80.3793304, 25.7588012 ], [ -80.3803347, 25.7588047 ] ] ] } },
{ "type": "Feature", "properties": { "osm_id": "way/828249358", "name": "Unnamed surface lot (way/828249358)", "type": "surface", "capacity": null, "access": "private", "fee": null, "elev_p10": 2.3912909030914307, "elev_median": 2.6117265224456787, "cells_1m": 1020, "pond_frac": 0.0, "pond_depth_p90": 0.0, "pond_depth_max": 0.021634340286254883, "flood_criteria_m": 2.3635255766605283, "freeboard_p10_m": 0.027765326430902348, "fema_zone": "X", "in_sfha": false, "access_edges": 6, "access_risk_min": 0.31830070268960642, "access_risk_max": 0.62099957466125488, "access_roads": "Southwest 17th Street; Southwest 116th Avenue", "access_method": "adjacent", "parking_score": 0.14253979881494794 }, "geometry": { "type": "Polygon", "coordinates": [ [ [ -80.3836948, 25.7541088 ], [ -80.3836886, 25.7539521 ], [ -80.3835028, 25.7539575 ], [ -80.383283, 25.7539639 ], [ -80.3832793, 25.7540042 ], [ -80.3832569, 25.7540047 ], [ -80.3832181, 25.7539908 ], [ -80.3832214, 25.7541027 ], [ -80.3832339, 25.7540847 ], [ -80.3832718, 25.7540752 ], [ -80.3832898, 25.754097 ], [ -80.3832917, 25.7541194 ], [ -80.3836948, 25.7541088 ] ] ] } },
{ "type": "Feature", "properties": { "osm_id": "way/112762946", "name": "Blue Parking Garage", "type": "garage", "capacity": null, "access": null, "fee": null, "elev_p10": 2.161510705947876, "elev_median": 2.1849062442779541, "cells_1m": 8733, "pond_frac": 0.0, "pond_depth_p90": 0.0, "pond_depth_max": 0.087290048599243164, "flood_criteria_m": 2.0175260428035502, "freeboard_p10_m": 0.14398466314432579, "fema_zone": "X", "in_sfha": false, "access_edges": 6, "access_risk_min": 0.30650277785312979, "access_risk_max": 0.61577471097310377, "access_roads": "Southwest 17th Street; Southwest 16th Street", "access_method": "adjacent", "parking_score": 0.12409440604403901 }, "geometry": { "type": "Polygon", "coordinates": [ [ [ -80.3725041, 25.7541325 ], [ -80.3725273, 25.7541326 ], [ -80.3725309, 25.7535844 ], [ -80.3724851, 25.7535842 ], [ -80.3724855, 25.7535291 ], [ -80.3716791, 25.7535247 ], [ -80.3716787, 25.7535814 ], [ -80.3716787, 25.7535847 ], [ -80.3716333, 25.7535845 ], [ -80.371632, 25.7537679 ], [ -80.3716318, 25.7537958 ], [ -80.3716317, 25.7538174 ], [ -80.3716294, 25.7541411 ], [ -80.3716795, 25.7541414 ], [ -80.3716791, 25.7541933 ], [ -80.372426, 25.7541976 ], [ -80.3724532, 25.7541978 ], [ -80.3724533, 25.7541813 ], [ -80.3725037, 25.7541816 ], [ -80.3725041, 25.7541325 ] ] ] } },
{ "type": "Feature", "properties": { "osm_id": "way/112762942", "name": "Gold Parking Garage", "type": "garage", "capacity": null, "access": null, "fee": null, "elev_p10": 2.1522412300109863, "elev_median": 2.1824591159820557, "cells_1m": 8906, "pond_frac": 0.0, "pond_depth_p90": 0.0010418891906738281, "pond_depth_max": 0.030500888824462891, "flood_criteria_m": 1.9107377738070905, "freeboard_p10_m": 0.24150345620389579, "fema_zone": "X", "in_sfha": false, "access_edges": 4, "access_risk_min": 0.30650277785312979, "access_risk_max": 0.32374492236125613, "access_roads": "Southwest 16th Street", "access_method": "adjacent", "parking_score": 0.11150865597903253 }, "geometry": { "type": "Polygon", "coordinates": [ [ [ -80.3725062, 25.7551171 ], [ -80.3725402, 25.7551173 ], [ -80.3725404, 25.7550918 ], [ -80.3725442, 25.7545653 ], [ -80.3724832, 25.7545649 ], [ -80.3724836, 25.7545092 ], [ -80.3724287, 25.7545089 ], [ -80.3716774, 25.7545044 ], [ -80.3716769, 25.754567 ], [ -80.3716324, 25.7545668 ], [ -80.3716299, 25.7549165 ], [ -80.3716285, 25.7551167 ], [ -80.3716715, 25.755117 ], [ -80.3716711, 25.7551778 ], [ -80.3724552, 25.7551822 ], [ -80.3724553, 25.7551655 ], [ -80.3725058, 25.7551658 ], [ -80.3725062, 25.7551171 ] ] ] } }
]
}
